{
  "type": "FeatureCollection",
  "features": [
    {
      "type": "Feature",
      "properties": {
        "norad_id": 33412,
        "name": "COSMO-SKYMED 3",
        "group": "resource",
        "lat": 40.55446467163572,
        "lon": 28.05372277399108,
        "alt_km": 536.5405603768331,
        "timestamp": "2025-12-16T19:34:23.921663+00:00",
        "meta_object_name": "COSMO-SKYMED 3",
        "meta_object_id": "2008-054A",
        "meta_epoch": "2025-12-15T23:48:54.637056",
        "meta_mean_motion": 15.05389461,
        "meta_eccentricity": 0.00163124,
        "meta_inclination": 97.8478,
        "meta_ra_of_asc_node": 200.4384,
        "meta_arg_of_pericenter": 161.9258,
        "meta_mean_anomaly": 198.2551,
        "meta_ephemeris_type": 0,
        "meta_classification_type": "U",
        "meta_norad_cat_id": 33412,
        "meta_element_set_no": 999,
        "meta_rev_at_epoch": 92936,
        "meta_bstar": 0.00020606347,
        "meta_mean_motion_dot": 2.897e-05,
        "meta_mean_motion_ddot": 0,
        "tle_line1": "1 33412U 08054A   25349.99229904  .00002897  00000+0  20606-3 0  9999",
        "tle_line2": "2 33412  97.8478 200.4384 0016312 161.9258 198.2551 15.05389461929366"
      },
      "geometry": {
        "type": "Point",
        "coordinates": [
          28.05372277399108,
          40.55446467163572
        ]
      }
    },
    {
      "type": "Feature",
      "properties": {
        "norad_id": 33446,
        "name": "YAOGAN-4",
        "group": "resource",
        "lat": 31.768961328778335,
        "lon": 105.81905740998415,
        "alt_km": 627.9120623020372,
        "timestamp": "2025-12-16T19:34:23.921674+00:00",
        "meta_object_name": "YAOGAN-4",
        "meta_object_id": "2008-061A",
        "meta_epoch": "2025-12-15T18:36:47.735136",
        "meta_mean_motion": 14.82692757,
        "meta_eccentricity": 0.00133523,
        "meta_inclination": 97.9181,
        "meta_ra_of_asc_node": 279.845,
        "meta_arg_of_pericenter": 312.7719,
        "meta_mean_anomaly": 47.237,
        "meta_ephemeris_type": 0,
        "meta_classification_type": "U",
        "meta_norad_cat_id": 33446,
        "meta_element_set_no": 999,
        "meta_rev_at_epoch": 91848,
        "meta_bstar": 0.00015255077,
        "meta_mean_motion_dot": 1.178e-05,
        "meta_mean_motion_ddot": 0,
        "tle_line1": "1 33446U 08061A   25349.77555249  .00001178  00000+0  15255-3 0  9999",
        "tle_line2": "2 33446  97.9181 279.8450 0013352 312.7719  47.2370 14.82692757918480"
      },
      "geometry": {
        "type": "Point",
        "coordinates": [
          105.81905740998415,
          31.768961328778335
        ]
      }
    },
    {
      "type": "Feature",
      "properties": {
        "norad_id": 33492,
        "name": "GOSAT (IBUKI)",
        "group": "resource",
        "lat": -21.829076102319547,
        "lon": 102.62239772739925,
        "alt_km": 674.5589311405311,
        "timestamp": "2025-12-16T19:34:23.921685+00:00",
        "meta_object_name": "GOSAT (IBUKI)",
        "meta_object_id": "2009-002A",
        "meta_epoch": "2025-12-15T20:45:51.511392",
        "meta_mean_motion": 14.67532099,
        "meta_eccentricity": 9.521e-05,
        "meta_inclination": 98.0768,
        "meta_ra_of_asc_node": 98.4247,
        "meta_arg_of_pericenter": 93.5308,
        "meta_mean_anomaly": 266.6005,
        "meta_ephemeris_type": 0,
        "meta_classification_type": "U",
        "meta_norad_cat_id": 33492,
        "meta_element_set_no": 999,
        "meta_rev_at_epoch": 90457,
        "meta_bstar": 0.00015600967,
        "meta_mean_motion_dot": 8.37e-06,
        "meta_mean_motion_ddot": 0,
        "tle_line1": "1 33492U 09002A   25349.86517953  .00000837  00000+0  15601-3 0  9992",
        "tle_line2": "2 33492  98.0768  98.4247 0000952  93.5308 266.6005 14.67532099904575"
      },
      "geometry": {
        "type": "Point",
        "coordinates": [
          102.62239772739925,
          -21.829076102319547
        ]
      }
    },
    {
      "type": "Feature",
      "properties": {
        "norad_id": 35681,
        "name": "DEIMOS-1",
        "group": "resource",
        "lat": 15.41412516469993,
        "lon": -26.6298560710025,
        "alt_km": 646.189049558564,
        "timestamp": "2025-12-16T19:34:23.921696+00:00",
        "meta_object_name": "DEIMOS-1",
        "meta_object_id": "2009-041A",
        "meta_epoch": "2025-12-15T23:17:35.162304",
        "meta_mean_motion": 14.74960608,
        "meta_eccentricity": 0.00026843,
        "meta_inclination": 97.7144,
        "meta_ra_of_asc_node": 150.423,
        "meta_arg_of_pericenter": 73.7443,
        "meta_mean_anomaly": 286.4062,
        "meta_ephemeris_type": 0,
        "meta_classification_type": "U",
        "meta_norad_cat_id": 35681,
        "meta_element_set_no": 999,
        "meta_rev_at_epoch": 87987,
        "meta_bstar": 0.00017741766,
        "meta_mean_motion_dot": 1.145e-05,
        "meta_mean_motion_ddot": 0,
        "tle_line1": "1 35681U 09041A   25349.97054586  .00001145  00000+0  17742-3 0  9998",
        "tle_line2": "2 35681  97.7144 150.4230 0002684  73.7443 286.4062 14.74960608879872"
      },
      "geometry": {
        "type": "Point",
        "coordinates": [
          -26.6298560710025,
          15.41412516469993
        ]
      }
    },
    {
      "type": "Feature",
      "properties": {
        "norad_id": 35682,
        "name": "DUBAISAT-1",
        "group": "resource",
        "lat": 80.97311329319693,
        "lon": 3.430855432464105,
        "alt_km": 644.8811924657139,
        "timestamp": "2025-12-16T19:34:23.921707+00:00",
        "meta_object_name": "DUBAISAT-1",
        "meta_object_id": "2009-041B",
        "meta_epoch": "2025-12-15T21:58:35.673024",
        "meta_mean_motion": 14.74612807,
        "meta_eccentricity": 0.00094263,
        "meta_inclination": 97.9792,
        "meta_ra_of_asc_node": 120.5486,
        "meta_arg_of_pericenter": 303.3623,
        "meta_mean_anomaly": 56.6683,
        "meta_ephemeris_type": 0,
        "meta_classification_type": "U",
        "meta_norad_cat_id": 35682,
        "meta_element_set_no": 999,
        "meta_rev_at_epoch": 87808,
        "meta_bstar": 0.00019651339,
        "meta_mean_motion_dot": 1.26e-05,
        "meta_mean_motion_ddot": 0,
        "tle_line1": "1 35682U 09041B   25349.91569066  .00001260  00000+0  19651-3 0  9996",
        "tle_line2": "2 35682  97.9792 120.5486 0009426 303.3623  56.6683 14.74612807878081"
      },
      "geometry": {
        "type": "Point",
        "coordinates": [
          3.430855432464105,
          80.97311329319693
        ]
      }
    },
    {
      "type": "Feature",
      "properties": {
        "norad_id": 35931,
        "name": "OCEANSAT-2",
        "group": "resource",
        "lat": -71.11591108195191,
        "lon": 145.99889351653042,
        "alt_km": 911.5248290779318,
        "timestamp": "2025-12-16T19:34:23.921727+00:00",
        "meta_object_name": "OCEANSAT-2",
        "meta_object_id": "2009-051A",
        "meta_epoch": "2025-12-15T23:29:44.666880",
        "meta_mean_motion": 13.99623944,
        "meta_eccentricity": 0.00161274,
        "meta_inclination": 98.222,
        "meta_ra_of_asc_node": 350.2511,
        "meta_arg_of_pericenter": 36.5739,
        "meta_mean_anomaly": 323.6526,
        "meta_ephemeris_type": 0,
        "meta_classification_type": "U",
        "meta_norad_cat_id": 35931,
        "meta_element_set_no": 999,
        "meta_rev_at_epoch": 85370,
        "meta_bstar": -7.7641235e-05,
        "meta_mean_motion_dot": -1.51e-06,
        "meta_mean_motion_ddot": 0,
        "tle_line1": "1 35931U 09051A   25349.97898920 -.00000151  00000+0 -77641-4 0  9998",
        "tle_line2": "2 35931  98.2220 350.2511 0016127  36.5739 323.6526 13.99623944853703"
      },
      "geometry": {
        "type": "Point",
        "coordinates": [
          145.99889351653042,
          -71.11591108195191
        ]
      }
    },
    {
      "type": "Feature",
      "properties": {
        "norad_id": 35946,
        "name": "WORLDVIEW-2 (WV-2)",
        "group": "resource",
        "lat": -32.40308082694416,
        "lon": -123.5887070502677,
        "alt_km": 775.3190164700391,
        "timestamp": "2025-12-16T19:34:23.921748+00:00",
        "meta_object_name": "WORLDVIEW-2 (WV-2)",
        "meta_object_id": "2009-055A",
        "meta_epoch": "2025-12-15T22:32:39.026976",
        "meta_mean_motion": 14.37725313,
        "meta_eccentricity": 0.00050872,
        "meta_inclination": 98.4787,
        "meta_ra_of_asc_node": 60.9798,
        "meta_arg_of_pericenter": 62.8181,
        "meta_mean_anomaly": 297.3524,
        "meta_ephemeris_type": 0,
        "meta_classification_type": "U",
        "meta_norad_cat_id": 35946,
        "meta_element_set_no": 999,
        "meta_rev_at_epoch": 84931,
        "meta_bstar": 6.799734e-05,
        "meta_mean_motion_dot": 1.61e-06,
        "meta_mean_motion_ddot": 0,
        "tle_line1": "1 35946U 09055A   25349.93934059  .00000161  00000+0  67997-4 0  9990",
        "tle_line2": "2 35946  98.4787  60.9798 0005087  62.8181 297.3524 14.37725313849310"
      },
      "geometry": {
        "type": "Point",
        "coordinates": [
          -123.5887070502677,
          -32.40308082694416
        ]
      }
    }
  ]
}